STARLINK-1835           
1 46782U 20074AV  25191.05726595 -.00000341  00000+0 -39852-5 0  9998
2 46782  53.0566 320.8358 0001112  90.9340 269.1776 15.06399250259962
STARLINK-1882           
1 46784U 20074AX  25190.63341634 -.00000631  00000+0 -23492-4 0  9994
2 46784  53.0560 322.9705 0001287  88.3430 271.7707 15.06395946260177
STARLINK-1893           
1 46786U 20074AZ  25191.04068037  .00003429  00000+0  24911-3 0  9997
2 46786  53.0555 300.9122 0001544  96.4685 263.6480 15.06384860260205
STARLINK-1931           
1 46790U 20074BD  25191.07846421  .00002409  00000+0  18066-3 0  9997
2 46790  53.0580 330.7442 0001375 100.0747 260.0397 15.06385302259788
STARLINK-1934           
1 46792U 20074BF  25190.65549932  .00001099  00000+0  92669-4 0  9995
2 46792  53.0572 322.6431 0001298  89.0686 271.0452 15.06396537260183
STARLINK-1942           
1 46794U 20074BH  25190.69142650  .00000490  00000+0  51813-4 0  9997
2 46794  53.0568 332.4790 0001297  85.8028 274.3110 15.06402645260051
STARLINK-1944           
1 46796U 20074BK  25190.66655561  .00000097  00000+0  25409-4 0  9991
2 46796  53.0556 322.5973 0001235  89.8160 270.2970 15.06397764260184
STARLINK-1777           
1 47122U 20088A   25190.65273578  .00005735  00000+0  40366-3 0  9995
2 47122  53.0552 312.6572 0001248  90.3506 269.7626 15.06391682255205
STARLINK-1812           
1 47126U 20088E   25190.61218400 -.00002456  00000+0 -14606-3 0  9995
2 47126  53.0558 312.8354 0001574  99.9246 260.1921 15.06395290255508
STARLINK-1843           
1 47133U 20088M   25190.59099677  .00000161  00000+0  29732-4 0  9999
2 47133  53.0565 302.9311 0001286  89.3016 270.8120 15.06395618255339
STARLINK-1845           
1 47135U 20088P   25190.58362540  .00000601  00000+0  59218-4 0  9993
2 47135  53.0558 302.9673 0001070  82.0935 278.0176 15.06397394255339
STARLINK-1856           
1 47143U 20088X   25190.58731272  .00000782  00000+0  71357-4 0  9992
2 47143  53.0555 302.9462 0001372  99.9499 260.1645 15.06399655255333
STARLINK-1861           
1 47148U 20088AC  25190.91667824  .00479625  10764-3  10220-2 0  9993
2 47148  53.0412 260.7306 0016155 318.8767 112.1959 15.97869820  6002
STARLINK-1863           
1 47150U 20088AE  25190.56152679  .00021516  00000+0  39512-3 0  9990
2 47150  53.0528 285.0715 0000661  55.4921 304.6149 15.49213691255593
STARLINK-1866           
1 47152U 20088AG  25189.18813029  .00588391  16762-3  10264-2 0  9998
2 47152  53.0255 250.7546 0013436 314.4863  79.1116 16.01430254256190
STARLINK-1871           
1 47157U 20088AM  25190.62324194 -.00000485  00000+0 -13665-4 0  9993
2 47157  53.0572 312.7901 0001389  93.8551 266.2597 15.06398650255207
STARLINK-1873           
1 47158U 20088AN  25190.57992930  .00000063  00000+0  23120-4 0  9994
2 47158  53.0560 302.9818 0001135  91.5947 268.5172 15.06400039255339
STARLINK-1876           
1 47161U 20088AR  25190.61310742 -.00000773  00000+0 -33031-4 0  9990
2 47161  53.0559 302.8306 0001247  91.0888 269.0244 15.06402091255342
STARLINK-1888           
1 47171U 20088BB  25190.69052086 -.00000832  00000+0 -36962-4 0  9995
2 47171  53.0577 302.4885 0001384  98.7730 261.3416 15.06395164255352
STARLINK-1912           
1 47178U 20088BJ  25190.65642227 -.00000038  00000+0  16359-4 0  9995
2 47178  53.0555 312.6377 0001140  91.4079 268.7041 15.06394372255209
STARLINK-1913           
1 47179U 20088BK  25190.64443152 -.00000773  00000+0 -32976-4 0  9991
2 47179  53.0580 322.6905 0001291  96.4674 263.6462 15.06406862255310
STARLINK-2017           
1 47351U 21005C   25190.81765940 -.00000183  00000+0  65947-5 0  9993
2 47351  53.0558  31.9005 0001319  94.0557 266.0583 15.06388861246996
STARLINK-2034           
1 47352U 21005D   25190.96973258 -.00000368  00000+0 -58324-5 0  9990
2 47352  53.0556  71.2319 0001385  92.0967 268.0180 15.06386580246458
STARLINK-2045           
1 47353U 21005E   25190.79233515  .00000557  00000+0  56311-4 0  9998
2 47353  53.0563  17.0254 0001381  89.7652 270.3496 15.06397389247202
STARLINK-2046           
1 47354U 21005F   25190.85691737 -.00000121  00000+0  10765-4 0  9991
2 47354  53.0567  37.2779 0001421  93.6310 266.4842 15.06397827246929
STARLINK-2047           
1 47355U 21005G   25190.82689677 -.00000361  00000+0 -53434-5 0  9997
2 47355  53.0562  21.8730 0001413  89.9133 270.2018 15.06392769247135
STARLINK-2049           
1 47356U 21005H   25190.87297850  .00000292  00000+0  38516-4 0  9995
2 47356  53.0560  41.6647 0001365  90.4506 269.6639 15.06390716246868
STARLINK-2050           
1 47357U 21005J   25190.92187614  .00000237  00000+0  34810-4 0  9990
2 47357  53.0539  71.8695 0001105  99.0091 261.1023 15.06382326246445
STARLINK-2055           
1 47358U 21005K   25190.88308397 -.00000171  00000+0  73802-5 0  9992
2 47358  53.0561  41.6090 0001345  85.0375 275.0767 15.06391563246869
STARLINK-2069           
1 47359U 21005L   25190.91004397  .00028646  00000+0  60876-3 0  9991
2 47359  53.0259  19.0150 0001281  66.6217 293.4923 15.44799010247184
STARLINK-2071           
1 47361U 21005N   25190.89140563 -.00000455  00000+0 -11655-4 0  9999
2 47361  53.0559  41.5840 0001303  88.8293 271.2845 15.06390570246868
STARLINK-2076           
1 47362U 21005P   25190.93655856  .00000919  00000+0  80573-4 0  9999
2 47362  53.0549  71.3761 0001445  93.2811 266.8343 15.06388493246453
STARLINK-2081           
1 47366U 21005T   25190.96603795  .00000259  00000+0  36271-4 0  9994
2 47366  53.0550  71.2473 0001325  89.4254 270.6887 15.06395912246453
STARLINK-2082           
1 47367U 21005U   25190.92550137  .00000391  00000+0  45123-4 0  9995
2 47367  53.0550  71.4270 0001312  91.2869 268.8270 15.06390740246459
STARLINK-2084           
1 47368U 21005V   25190.91812851 -.00000166  00000+0  77522-5 0  9999
2 47368  53.0558  71.4641 0001372  87.7352 272.3794 15.06388594246458
STARLINK-2086           
1 47370U 21005X   25191.25002315  .00057619  00000+0  27082-2 0  9993
2 47370  53.0556  29.7002 0000693 123.8887 217.8242 15.19064104247068
STARLINK-2088           
1 47371U 21005Y   25190.86652479  .00000685  00000+0  64870-4 0  9991
2 47371  53.0548  71.6904 0001425  94.8188 265.2964 15.06387546246445
STARLINK-2092           
1 47373U 21005AA  25190.86284100  .00000652  00000+0  62663-4 0  9997
2 47373  53.0555  71.7102 0001360  91.6636 268.4509 15.06389513246443
STARLINK-2093           
1 47374U 21005AB  25190.94761505  .00000608  00000+0  59730-4 0  9998
2 47374  53.0553  71.3001 0001602  89.5526 270.5646 15.06390823246452
STARLINK-2094           
1 47375U 21005AC  25191.08767015  .00001238  00000+0  10197-3 0  9990
2 47375  53.0552  70.7012 0001433  89.9764 270.1389 15.06399614247433
STARLINK-2096           
1 47376U 21005AD  25190.89232255 -.00000224  00000+0  38628-5 0  9998
2 47376  53.0563  71.5782 0001455  93.7772 266.3383 15.06388340246440
STARLINK-2097           
1 47377U 21005AE  25190.87755915  .00002535  00000+0  18900-3 0  9995
2 47377  53.0553  71.6470 0001419  89.1935 270.9217 15.06408091246448
STARLINK-2098           
1 47378U 21005AF  25190.87021084  .00000007  00000+0  19366-4 0  9999
2 47378  53.0565  31.6772 0001359  89.3380 270.7765 15.06391840247004
STARLINK-2099           
1 47379U 21005AG  25190.87663517  .00000902  00000+0  79471-4 0  9990
2 47379  53.0565  31.6386 0001392  93.9947 266.1201 15.06391521247003
STARLINK-2100           
1 47380U 21005AH  25190.90614536  .00000241  00000+0  35111-4 0  9992
2 47380  53.0561  41.5172 0001362  87.1031 273.0114 15.06390442246875
STARLINK-2101           
1 47381U 21005AJ  25190.85593550  .00000341  00000+0  41828-4 0  9992
2 47381  53.0556  46.8286 0001371  88.7883 271.3263 15.06389908246798
STARLINK-2102           
1 47382U 21005AK  25190.89878021  .00001758  00000+0  13691-3 0  9995
2 47382  53.0557  41.5486 0001242  78.7176 281.3952 15.06397228246863
STARLINK-2103           
1 47383U 21005AL  25190.87761445  .00000660  00000+0  63187-4 0  9992
2 47383  53.0567  31.9219 0001379  89.7908 270.3239 15.06390753247007
STARLINK-2104           
1 47384U 21005AM  25190.88406110 -.00000190  00000+0  61214-5 0  9998
2 47384  53.0561  41.8572 0001386  92.2502 267.8646 15.06388921246861
STARLINK-2105           
1 47385U 21005AN  25190.88034472  .00000811  00000+0  73372-4 0  9993
2 47385  53.0558  41.6314 0001299  88.2801 271.8336 15.06392646246860
STARLINK-2106           
1 47386U 21005AP  25190.97618009  .00000638  00000+0  61714-4 0  9992
2 47386  53.0558  41.2012 0001382  91.8688 268.2459 15.06391360247508
STARLINK-2109           
1 47388U 21005AR  25191.04345164 -.00000092  00000+0  12728-4 0  9998
2 47388  53.0562  70.9011 0001383  87.4832 272.6315 15.06388126247423
STARLINK-2110           
1 47389U 21005AS  25190.88953808 -.00000519  00000+0 -15968-4 0  9994
2 47389  53.0554  51.5810 0001353  88.0213 272.0931 15.06389503246724
STARLINK-2111           
1 47390U 21005AT  25190.95129775 -.00000303  00000+0 -14273-5 0  9992
2 47390  53.0548  71.3148 0001404  82.5719 277.5430 15.06392581246454
STARLINK-2112           
1 47391U 21005AU  25190.89411943  .00003309  00000+0  24082-3 0  9991
2 47391  53.0563  41.5678 0001330  87.2190 272.8952 15.06417598247478
STARLINK-2113           
1 47392U 21005AV  25190.89509075 -.00000074  00000+0  13902-4 0  9993
2 47392  53.0573  41.5650 0001450  92.6996 267.4159 15.06392436246861
STARLINK-2114           
1 47393U 21005AW  25190.78869862  .00000274  00000+0  37288-4 0  9999
2 47393  53.0553  17.3983 0001318  96.4925 263.6214 15.06392738247199
STARLINK-2117           
1 47395U 21005AY  25190.87389720  .00000815  00000+0  73640-4 0  9994
2 47395  53.0565  31.6604 0001293  89.3052 270.8085 15.06394384247002
STARLINK-2119           
1 47397U 21005BA  25191.04713893 -.00000195  00000+0  58153-5 0  9993
2 47397  53.0559  70.8846 0001450  89.7593 270.3562 15.06388121246476
